{
  "type": "FeatureCollection",
  "features": [
    {
      "type": "Feature",
      "properties": {
        "norad_id": 28890,
        "name": "BEIJING 1",
        "group": "dmc",
        "lat": 15.003323932278475,
        "lon": -70.03953033462713,
        "alt_km": 672.6570887922044,
        "timestamp": "2025-12-06T05:40:08.903115+00:00",
        "meta_object_name": "BEIJING 1",
        "meta_object_id": "2005-043A",
        "meta_epoch": "2025-12-05T07:35:07.990080",
        "meta_mean_motion": 14.63355243,
        "meta_eccentricity": 0.00149586,
        "meta_inclination": 98.2651,
        "meta_ra_of_asc_node": 106.8058,
        "meta_arg_of_pericenter": 163.8783,
        "meta_mean_anomaly": 196.2897,
        "meta_ephemeris_type": 0,
        "meta_classification_type": "U",
        "meta_norad_cat_id": 28890,
        "meta_element_set_no": 999,
        "meta_rev_at_epoch": 7229,
        "meta_bstar": 0.00016790347,
        "meta_mean_motion_dot": 8.2e-06,
        "meta_mean_motion_ddot": 0,
        "tle_line1": "1 28890U 05043A   25339.31606470  .00000820  00000+0  16790-3 0  9993",
        "tle_line2": "2 28890  98.2651 106.8058 0014958 163.8783 196.2897 14.63355243 72299"
      },
      "geometry": {
        "type": "Point",
        "coordinates": [
          -70.03953033462713,
          15.003323932278475
        ]
      }
    },
    {
      "type": "Feature",
      "properties": {
        "norad_id": 33320,
        "name": "HUANJING 1A (HJ-1A)",
        "group": "dmc",
        "lat": 80.60409900189534,
        "lon": -85.54270694237438,
        "alt_km": 598.8452145725641,
        "timestamp": "2025-12-06T05:40:08.903140+00:00",
        "meta_object_name": "HUANJING 1A (HJ-1A)",
        "meta_object_id": "2008-041A",
        "meta_epoch": "2025-12-05T06:37:32.446272",
        "meta_mean_motion": 14.83357551,
        "meta_eccentricity": 0.00205716,
        "meta_inclination": 97.6531,
        "meta_ra_of_asc_node": 327.8865,
        "meta_arg_of_pericenter": 57.7093,
        "meta_mean_anomaly": 302.6111,
        "meta_ephemeris_type": 0,
        "meta_classification_type": "U",
        "meta_norad_cat_id": 33320,
        "meta_element_set_no": 999,
        "meta_rev_at_epoch": 92965,
        "meta_bstar": 0.00037745191,
        "meta_mean_motion_dot": 3.054e-05,
        "meta_mean_motion_ddot": 0,
        "tle_line1": "1 33320U 08041A   25339.27606998  .00003054  00000+0  37745-3 0  9993",
        "tle_line2": "2 33320  97.6531 327.8865 0020571  57.7093 302.6111 14.83357551929656"
      },
      "geometry": {
        "type": "Point",
        "coordinates": [
          -85.54270694237438,
          80.60409900189534
        ]
      }
    },
    {
      "type": "Feature",
      "properties": {
        "norad_id": 33321,
        "name": "HUANJING 1B (HJ-1B)",
        "group": "dmc",
        "lat": -41.063260635877384,
        "lon": -20.7644403008803,
        "alt_km": 646.8571289350703,
        "timestamp": "2025-12-06T05:40:08.903155+00:00",
        "meta_object_name": "HUANJING 1B (HJ-1B)",
        "meta_object_id": "2008-041B",
        "meta_epoch": "2025-12-05T07:10:57.919872",
        "meta_mean_motion": 14.82791299,
        "meta_eccentricity": 0.00382463,
        "meta_inclination": 97.6392,
        "meta_ra_of_asc_node": 331.6252,
        "meta_arg_of_pericenter": 99.3445,
        "meta_mean_anomaly": 261.2097,
        "meta_ephemeris_type": 0,
        "meta_classification_type": "U",
        "meta_norad_cat_id": 33321,
        "meta_element_set_no": 999,
        "meta_rev_at_epoch": 92967,
        "meta_bstar": 0.00030388054,
        "meta_mean_motion_dot": 2.437e-05,
        "meta_mean_motion_ddot": 0,
        "tle_line1": "1 33321U 08041B   25339.29928148  .00002437  00000+0  30388-3 0  9990",
        "tle_line2": "2 33321  97.6392 331.6252 0038246  99.3445 261.2097 14.82791299929671"
      },
      "geometry": {
        "type": "Point",
        "coordinates": [
          -20.7644403008803,
          -41.063260635877384
        ]
      }
    },
    {
      "type": "Feature",
      "properties": {
        "norad_id": 33446,
        "name": "YAOGAN-4",
        "group": "dmc",
        "lat": -52.85358097714179,
        "lon": 79.81445323133555,
        "alt_km": 631.6176072591961,
        "timestamp": "2025-12-06T05:40:08.903167+00:00",
        "meta_object_name": "YAOGAN-4",
        "meta_object_id": "2008-061A",
        "meta_epoch": "2025-12-05T05:56:32.138016",
        "meta_mean_motion": 14.82645538,
        "meta_eccentricity": 0.00142248,
        "meta_inclination": 97.9172,
        "meta_ra_of_asc_node": 269.4209,
        "meta_arg_of_pericenter": 348.3495,
        "meta_mean_anomaly": 11.7387,
        "meta_ephemeris_type": 0,
        "meta_classification_type": "U",
        "meta_norad_cat_id": 33446,
        "meta_element_set_no": 999,
        "meta_rev_at_epoch": 91692,
        "meta_bstar": 0.00038125296,
        "meta_mean_motion_dot": 3.024e-05,
        "meta_mean_motion_ddot": 0,
        "tle_line1": "1 33446U 08061A   25339.24759419  .00003024  00000+0  38125-3 0  9998",
        "tle_line2": "2 33446  97.9172 269.4209 0014224 348.3495  11.7387 14.82645538916928"
      },
      "geometry": {
        "type": "Point",
        "coordinates": [
          79.81445323133555,
          -52.85358097714179
        ]
      }
    },
    {
      "type": "Feature",
      "properties": {
        "norad_id": 35681,
        "name": "DEIMOS-1",
        "group": "dmc",
        "lat": -4.23476693890062,
        "lon": -39.43276879710924,
        "alt_km": 649.0205910628747,
        "timestamp": "2025-12-06T05:40:08.903178+00:00",
        "meta_object_name": "DEIMOS-1",
        "meta_object_id": "2009-041A",
        "meta_epoch": "2025-12-05T07:40:14.681568",
        "meta_mean_motion": 14.74934848,
        "meta_eccentricity": 0.000269,
        "meta_inclination": 97.7146,
        "meta_ra_of_asc_node": 140.2688,
        "meta_arg_of_pericenter": 93.6149,
        "meta_mean_anomaly": 266.5368,
        "meta_ephemeris_type": 0,
        "meta_classification_type": "U",
        "meta_norad_cat_id": 35681,
        "meta_element_set_no": 999,
        "meta_rev_at_epoch": 87830,
        "meta_bstar": 0.00020068529,
        "meta_mean_motion_dot": 1.301e-05,
        "meta_mean_motion_ddot": 0,
        "tle_line1": "1 35681U 09041A   25339.31961437  .00001301  00000+0  20069-3 0  9997",
        "tle_line2": "2 35681  97.7146 140.2688 0002690  93.6149 266.5368 14.74934848878301"
      },
      "geometry": {
        "type": "Point",
        "coordinates": [
          -39.43276879710924,
          -4.23476693890062
        ]
      }
    },
    {
      "type": "Feature",
      "properties": {
        "norad_id": 35683,
        "name": "UK-DMC 2",
        "group": "dmc",
        "lat": -3.6438289381695137,
        "lon": -65.18102308239894,
        "alt_km": 646.6210470232218,
        "timestamp": "2025-12-06T05:40:08.903189+00:00",
        "meta_object_name": "UK-DMC 2",
        "meta_object_id": "2009-041C",
        "meta_epoch": "2025-12-05T07:40:59.553408",
        "meta_mean_motion": 14.75596404,
        "meta_eccentricity": 0.00013427,
        "meta_inclination": 97.8559,
        "meta_ra_of_asc_node": 114.4329,
        "meta_arg_of_pericenter": 102.8539,
        "meta_mean_anomaly": 257.2821,
        "meta_ephemeris_type": 0,
        "meta_classification_type": "U",
        "meta_norad_cat_id": 35683,
        "meta_element_set_no": 999,
        "meta_rev_at_epoch": 87797,
        "meta_bstar": 0.0003269704,
        "meta_mean_motion_dot": 2.181e-05,
        "meta_mean_motion_ddot": 0,
        "tle_line1": "1 35683U 09041C   25339.32013372  .00002181  00000+0  32697-3 0  9993",
        "tle_line2": "2 35683  97.8559 114.4329 0001342 102.8539 257.2821 14.75596404877972"
      },
      "geometry": {
        "type": "Point",
        "coordinates": [
          -65.18102308239894,
          -3.6438289381695137
        ]
      }
    },
    {
      "type": "Feature",
      "properties": {
        "norad_id": 40715,
        "name": "DMC3-FM1",
        "group": "dmc",
        "lat": 2.8846100193311424,
        "lon": -152.72388210914448,
        "alt_km": 611.4764505875019,
        "timestamp": "2025-12-06T05:40:08.903200+00:00",
        "meta_object_name": "DMC3-FM1",
        "meta_object_id": "2015-032A",
        "meta_epoch": "2025-12-05T07:01:20.385120",
        "meta_mean_motion": 14.8542035,
        "meta_eccentricity": 0.00051686,
        "meta_inclination": 97.6698,
        "meta_ra_of_asc_node": 206.7562,
        "meta_arg_of_pericenter": 347.8999,
        "meta_mean_anomaly": 12.2092,
        "meta_ephemeris_type": 0,
        "meta_classification_type": "U",
        "meta_norad_cat_id": 40715,
        "meta_element_set_no": 999,
        "meta_rev_at_epoch": 56112,
        "meta_bstar": 0.00018277454,
        "meta_mean_motion_dot": 1.523e-05,
        "meta_mean_motion_ddot": 0,
        "tle_line1": "1 40715U 15032A   25339.29259705  .00001523  00000+0  18277-3 0  9997",
        "tle_line2": "2 40715  97.6698 206.7562 0005168 347.8999  12.2092 14.85420350561124"
      },
      "geometry": {
        "type": "Point",
        "coordinates": [
          -152.72388210914448,
          2.8846100193311424
        ]
      }
    },
    {
      "type": "Feature",
      "properties": {
        "norad_id": 40716,
        "name": "DMC3-FM2",
        "group": "dmc",
        "lat": -61.76783616514652,
        "lon": 14.557272741617995,
        "alt_km": 620.5980055465434,
        "timestamp": "2025-12-06T05:40:08.903211+00:00",
        "meta_object_name": "DMC3-FM2",
        "meta_object_id": "2015-032B",
        "meta_epoch": "2025-12-05T05:56:44.653920",
        "meta_mean_motion": 14.85421515,
        "meta_eccentricity": 0.00058233,
        "meta_inclination": 97.6755,
        "meta_ra_of_asc_node": 208.1515,
        "meta_arg_of_pericenter": 352.4722,
        "meta_mean_anomaly": 7.6405,
        "meta_ephemeris_type": 0,
        "meta_classification_type": "U",
        "meta_norad_cat_id": 40716,
        "meta_element_set_no": 999,
        "meta_rev_at_epoch": 56111,
        "meta_bstar": 0.00018182841,
        "meta_mean_motion_dot": 1.515e-05,
        "meta_mean_motion_ddot": 0,
        "tle_line1": "1 40716U 15032B   25339.24773905  .00001515  00000+0  18183-3 0  9993",
        "tle_line2": "2 40716  97.6755 208.1515 0005823 352.4722   7.6405 14.85421515561116"
      },
      "geometry": {
        "type": "Point",
        "coordinates": [
          14.557272741617995,
          -61.76783616514652
        ]
      }
    },
    {
      "type": "Feature",
      "properties": {
        "norad_id": 40717,
        "name": "DMC3-FM3",
        "group": "dmc",
        "lat": 51.80375131199804,
        "lon": 40.60966051436476,
        "alt_km": 610.0970381600891,
        "timestamp": "2025-12-06T05:40:08.903222+00:00",
        "meta_object_name": "DMC3-FM3",
        "meta_object_id": "2015-032C",
        "meta_epoch": "2025-12-05T06:27:48.816864",
        "meta_mean_motion": 14.85413944,
        "meta_eccentricity": 0.00051786,
        "meta_inclination": 97.681,
        "meta_ra_of_asc_node": 209.8004,
        "meta_arg_of_pericenter": 354.6216,
        "meta_mean_anomaly": 5.4943,
        "meta_ephemeris_type": 0,
        "meta_classification_type": "U",
        "meta_norad_cat_id": 40717,
        "meta_element_set_no": 999,
        "meta_rev_at_epoch": 56112,
        "meta_bstar": 0.00015045885,
        "meta_mean_motion_dot": 1.245e-05,
        "meta_mean_motion_ddot": 0,
        "tle_line1": "1 40717U 15032C   25339.26931501  .00001245  00000+0  15046-3 0  9999",
        "tle_line2": "2 40717  97.6810 209.8004 0005178 354.6216   5.4943 14.85413944561126"
      },
      "geometry": {
        "type": "Point",
        "coordinates": [
          40.60966051436476,
          51.80375131199804
        ]
      }
    }
  ]
}